ONEWEB-0707             
1 61612U 24188U   26047.03947535  .00000149  00000+0  39063-3 0  9991
2 61612  87.8757  60.3859 0002409  98.6102 261.5298 13.10369018 67459
ONEWEB-0708             
1 61613U 24188V   26047.05773184 -.00000651  00000+0 -19024-2 0  9995
2 61613  87.8752  60.4115 0002310  80.6269 279.5120 13.10371794 67432
