[{"OBJECT_NAME":"ONEWEB-0707","OBJECT_ID":"2024-188U","EPOCH":"2026-02-16T00:56:50.670240","MEAN_MOTION":13.10369018,"ECCENTRICITY":0.00024093,"INCLINATION":87.8757,"RA_OF_ASC_NODE":60.3859,"ARG_OF_PERICENTER":98.6102,"MEAN_ANOMALY":261.5298,"EPHEMERIS_TYPE":0,"CLASSIFICATION_TYPE":"U","NORAD_CAT_ID":61612,"ELEMENT_SET_NO":999,"REV_AT_EPOCH":6745,"BSTAR":0.00039062732,"MEAN_MOTION_DOT":1.49e-6,"MEAN_MOTION_DDOT":0},{"OBJECT_NAME":"ONEWEB-0708","OBJECT_ID":"2024-188V","EPOCH":"2026-02-16T01:23:08.030976","MEAN_MOTION":13.10371794,"ECCENTRICITY":0.00023106,"INCLINATION":87.8752,"RA_OF_ASC_NODE":60.4115,"ARG_OF_PERICENTER":80.6269,"MEAN_ANOMALY":279.512,"EPHEMERIS_TYPE":0,"CLASSIFICATION_TYPE":"U","NORAD_CAT_ID":61613,"ELEMENT_SET_NO":999,"REV_AT_EPOCH":6743,"BSTAR":-0.0019024235,"MEAN_MOTION_DOT":-6.51e-6,"MEAN_MOTION_DDOT":0}]
